{
  "type": "FeatureCollection",
  "features": [
    {
      "type": "Feature",
      "properties": {},
      "geometry": {
        "type": "Polygon",
        "coordinates": [
          [
            [114.20809060156955, 30.568376666150897],
            [114.20810358480395, 30.568387845010832],
            [114.20770110458449, 30.56851081238061],
            [114.20784392014582, 30.568756746653477],
            [114.20731160759726, 30.56892442875396],
            [114.20863589735035, 30.571763801651898],
            [114.21042758348852, 30.571182519478143],
            [114.21182977263743, 30.570992484165544],
            [114.21153115828247, 30.568197804222976],
            [114.2096226230496, 30.56807483645639],
            [114.20959665658296, 30.56892442875396],
            [114.20997317033789, 30.56893560755077],
            [114.20999913680248, 30.56946100952979],
            [114.208532031488, 30.569438652055993],
            [114.2085450147203, 30.569438652055993],
            [114.20809060156955, 30.568376666150897]
          ]
        ]
      }
    }
  ]
}
