{"type": "FeatureCollection", "name": "历史文化街区", "features": [{"type": "Feature", "properties": {"OBJECTID_1": 0, "OBJECTID_2": 6, "Entity": "3DPolyline", "Color": 7, "Linetype": "Continuous", "Elevation": 0.0, "LineWt": 25, "RefName": "", "名称": "昙华林核心保护范围", "MJ": 5.51550847841, "类别": "历史文化街区", "Shape_Leng": 1227.59593309, "Shape_Area": 55155.0847841}, "geometry": {"type": "Polygon", "coordinates": [[[114.3038308, 30.5555257], [114.3039662, 30.5554778], [114.304145, 30.5554393], [114.3047734, 30.5553291], [114.3058087, 30.5551415], [114.3057908, 30.555056], [114.3057888, 30.5550463], [114.3057726, 30.5549125], [114.3057106, 30.5546633], [114.3058713, 30.5546242], [114.3057319, 30.5541051], [114.3053726, 30.5541689], [114.3047931, 30.5542817], [114.3047683, 30.5542106], [114.3047658, 30.5542112], [114.3047074, 30.5540582], [114.3046168, 30.553829], [114.304601, 30.5537692], [114.3042733, 30.5538886], [114.3040862, 30.553474], [114.3038364, 30.5535532], [114.3037206, 30.5536061], [114.3037545, 30.553847], [114.3035758, 30.5538699], [114.3035729, 30.5537999], [114.303558, 30.5536791], [114.3034939, 30.5536881], [114.3034843, 30.5535847], [114.3030788, 30.5536091], [114.3030819, 30.5534636], [114.3030269, 30.5534619], [114.3030049, 30.5533122], [114.3024764, 30.5533603], [114.3021721, 30.5534371], [114.3021839, 30.5536723], [114.3021457, 30.5541633], [114.3024372, 30.5541788], [114.3024283, 30.5542997], [114.3024302, 30.5543319], [114.3024818, 30.5543346], [114.3024943, 30.5545051], [114.3025016, 30.5545981], [114.3024934, 30.5546768], [114.3026109, 30.5548121], [114.3027094, 30.5551506], [114.3029205, 30.5550864], [114.3031961, 30.555507], [114.3031966, 30.5555067], [114.3033601, 30.5554195], [114.3035857, 30.5552815], [114.3036215, 30.5553172], [114.3036935, 30.5552892], [114.3038308, 30.5555257]]]}}, {"type": "Feature", "properties": {"OBJECTID_1": 0, "OBJECTID_2": 8, "Entity": "3DPolyline", "Color": 7, "Linetype": "Continuous", "Elevation": 0.0, "LineWt": 25, "RefName": "", "名称": "一元路核心保护范围", "MJ": 26.8822456243, "类别": "历史文化街区", "Shape_Leng": 2972.23538832, "Shape_Area": 268822.456243}, "geometry": {"type": "Polygon", "coordinates": [[[114.2981382, 30.6000188], [114.2992876, 30.5995187], [114.2992877, 30.5995186], [114.3000091, 30.5992005], [114.2994522, 30.5983107], [114.2994522, 30.5983106], [114.2986347, 30.5969831], [114.2984631, 30.5966949], [114.2983591, 30.5965192], [114.2988461, 30.5963099], [114.2985386, 30.595786], [114.2985323, 30.5957621], [114.2999431, 30.5950955], [114.2996856, 30.5946842], [114.299632, 30.5943214], [114.2996314, 30.5942044], [114.2991942, 30.593309], [114.2983382, 30.5936808], [114.2974448, 30.5923746], [114.2969515, 30.5926817], [114.2963102, 30.5918793], [114.295786, 30.5922205], [114.2960834, 30.5926559], [114.2956963, 30.5928993], [114.2953462, 30.5924868], [114.2943414, 30.59313], [114.294927, 30.5937866], [114.2946375, 30.5940225], [114.2937029, 30.5936243], [114.293595, 30.5936564], [114.2930025, 30.5946155], [114.2930052, 30.5946637], [114.2930515, 30.5947076], [114.2936518, 30.5949836], [114.2942632, 30.5952735], [114.2946527, 30.5954447], [114.2949381, 30.5955906], [114.2956087, 30.5957313], [114.2964674, 30.5972035], [114.2965807, 30.5973873], [114.2968473, 30.5978303], [114.2969376, 30.597992], [114.2970422, 30.5981674], [114.2981382, 30.6000188]]]}}, {"type": "Feature", "properties": {"OBJECTID_1": 0, "OBJECTID_2": 9, "Entity": "3DPolyline", "Color": 7, "Linetype": "Continuous", "Elevation": 0.0, "LineWt": 25, "RefName": "", "名称": "青岛路建设控制地带", "MJ": 7.39457163913, "类别": "历史文化街区", "Shape_Leng": 4074.82717212, "Shape_Area": 73945.7163913}, "geometry": {"type": "Polygon", "coordinates": [[[114.2922925, 30.5869304], [114.2936949, 30.5858661], [114.2951598, 30.5846615], [114.2945211, 30.5833743], [114.2942703, 30.5829865], [114.2941621, 30.5828193], [114.2940805, 30.5826932], [114.2935011, 30.5816951], [114.2934932, 30.5816814], [114.2934925, 30.5816808], [114.2906196, 30.5839336], [114.2891883, 30.5846302], [114.2903506, 30.5865148], [114.2903895, 30.5864967], [114.290113, 30.5860513], [114.2897724, 30.5855086], [114.2897743, 30.5855056], [114.2900287, 30.5851001], [114.2898631, 30.5850194], [114.2899902, 30.5847601], [114.2900708, 30.5847208], [114.290396, 30.5844366], [114.2904238, 30.5844267], [114.2908411, 30.5851598], [114.2909246, 30.5852057], [114.291138, 30.5849229], [114.2907824, 30.5842982], [114.2908961, 30.5842575], [114.2917091, 30.5835844], [114.2918615, 30.5837082], [114.2922697, 30.5833775], [114.2923545, 30.5835281], [114.292778, 30.5831905], [114.2925385, 30.5829377], [114.2931191, 30.5824328], [114.292864, 30.5822054], [114.2934176, 30.5817597], [114.2939489, 30.5827045], [114.2939007, 30.5827248], [114.2946246, 30.5840109], [114.2945623, 30.5840594], [114.2949241, 30.5847212], [114.2945801, 30.5850007], [114.2943451, 30.5847859], [114.2937942, 30.5852238], [114.2939663, 30.58554], [114.2936444, 30.5857951], [114.2932883, 30.5851611], [114.2923482, 30.58591], [114.2924601, 30.5860165], [114.2925197, 30.5859713], [114.2926613, 30.5861038], [114.2924753, 30.586245], [114.2927103, 30.5864911], [114.2923208, 30.5867938], [114.2917736, 30.5858445], [114.29179, 30.5858377], [114.2915705, 30.585441], [114.2914794, 30.5855191], [114.2914696, 30.5855275], [114.2912399, 30.5857242], [114.2905036, 30.5864778], [114.2908069, 30.5869699], [114.2907321, 30.5870403], [114.2911681, 30.5877477], [114.2922925, 30.5869304]]]}}, {"type": "Feature", "properties": {"OBJECTID_1": 0, "OBJECTID_2": 10, "Entity": "3DPolyline", "Color": 7, "Linetype": "Continuous", "Elevation": 0.0, "LineWt": 25, "RefName": "", "名称": "八七会址建设控制地带", "MJ": 17.912795455, "类别": "历史文化街区", "Shape_Leng": 4825.52559268, "Shape_Area": 179127.95455}, "geometry": {"type": "MultiPolygon", "coordinates": [[[[114.297998, 30.5915251], [114.297952, 30.5914337], [114.2970855, 30.5917601], [114.2970791, 30.5917625], [114.2973293, 30.5921354], [114.2973294, 30.5921354], [114.2973353, 30.5921323], [114.2979181, 30.59183], [114.2980673, 30.5917618], [114.2979578, 30.5915395], [114.297998, 30.5915251]]], [[[114.2964701, 30.5910194], [114.2962153, 30.5907053], [114.295363, 30.5912474], [114.2957693, 30.5917405], [114.2956825, 30.5917863], [114.2955294, 30.5918731], [114.2957833, 30.5921783], [114.2957838, 30.592179], [114.2966382, 30.5916375], [114.2966379, 30.5916372], [114.2966376, 30.5916369], [114.2962443, 30.5911703], [114.2964701, 30.5910194]]], [[[114.2951637, 30.592571], [114.2946351, 30.5919448], [114.2943986, 30.5920854], [114.2944896, 30.5921965], [114.2944592, 30.5922152], [114.294573, 30.5923524], [114.2944332, 30.5924332], [114.2947638, 30.5928244], [114.2947644, 30.592825], [114.2951643, 30.5925716], [114.2951637, 30.592571]]], [[[114.2979557, 30.5903329], [114.2971617, 30.5886525], [114.2963044, 30.5866933], [114.2962392, 30.5865515], [114.2961684, 30.5864117], [114.2960922, 30.586274], [114.2956056, 30.5854316], [114.2951598, 30.5846615], [114.2936949, 30.5858661], [114.2922925, 30.5869304], [114.2911681, 30.5877477], [114.2911683, 30.587748], [114.2912368, 30.5878591], [114.2912008, 30.5878801], [114.2913938, 30.5881831], [114.2915794, 30.5884743], [114.2915332, 30.5885043], [114.2923812, 30.5894052], [114.2936129, 30.5885369], [114.29385, 30.5883395], [114.2938904, 30.5883075], [114.2937268, 30.5881505], [114.2938984, 30.5880181], [114.2936433, 30.5877678], [114.2934645, 30.5879032], [114.293303, 30.5877435], [114.2930367, 30.5879817], [114.2926023, 30.5876447], [114.2928166, 30.5874612], [114.2929812, 30.5873315], [114.2934027, 30.5869993], [114.2939035, 30.5875301], [114.2939699, 30.5875949], [114.2940968, 30.5877008], [114.2939138, 30.5878447], [114.2941664, 30.5880892], [114.2944785, 30.5878413], [114.2947465, 30.5881733], [114.29489, 30.5882752], [114.2950576, 30.5883859], [114.29551, 30.5887525], [114.2957026, 30.5892167], [114.2959079, 30.5891471], [114.2960511, 30.5894554], [114.2955073, 30.5896533], [114.2959826, 30.5902174], [114.2963413, 30.5900815], [114.2964841, 30.5904073], [114.296884, 30.5902693], [114.2970317, 30.5902178], [114.296738, 30.5895828], [114.2969606, 30.5895143], [114.2968368, 30.5892527], [114.2966476, 30.5893157], [114.2964845, 30.588952], [114.2970861, 30.5887506], [114.2973759, 30.5893709], [114.2975403, 30.5897105], [114.2976698, 30.5899762], [114.2978308, 30.5903248], [114.298087, 30.5908651], [114.2983254, 30.5913541], [114.2984506, 30.5916006], [114.2988031, 30.5922901], [114.2987079, 30.5923222], [114.2984985, 30.592404], [114.2985787, 30.5925678], [114.2984257, 30.5926324], [114.2984426, 30.5926667], [114.2982448, 30.5927423], [114.2983579, 30.5929399], [114.298358, 30.5929403], [114.2983589, 30.5929421], [114.2990909, 30.5926523], [114.29909, 30.5926504], [114.2990961, 30.592648], [114.2983868, 30.5912113], [114.2979557, 30.5903329]]]]}}, {"type": "Feature", "properties": {"OBJECTID_1": 0, "OBJECTID_2": 11, "Entity": "LWPolyline", "Color": 1, "Linetype": "Continuous", "Elevation": 0.0, "LineWt": 25, "RefName": "", "名称": "江汉路及中山大道核心保护范围", "MJ": 60.1579544769, "类别": "历史文化街区", "Shape_Leng": 10743.9204684, "Shape_Area": 601579.544769}, "geometry": {"type": "Polygon", "coordinates": [[[114.2936528, 30.5912055], [114.2934148, 30.590942], [114.2932213, 30.5910754], [114.2930193, 30.5908701], [114.2930056, 30.5908561], [114.292755, 30.5906014], [114.2926461, 30.5904906], [114.292487, 30.5903288], [114.292637, 30.5902237], [114.292629, 30.5902062], [114.2926128, 30.5901882], [114.2925935, 30.5902008], [114.2921658, 30.589748], [114.2921009, 30.5897934], [114.2920533, 30.5897385], [114.2920194, 30.5896993], [114.2919283, 30.5897709], [114.2915769, 30.5900091], [114.2915485, 30.5899741], [114.2911774, 30.5895841], [114.2913302, 30.5894795], [114.291546, 30.5893319], [114.2915394, 30.5893456], [114.2916069, 30.5894177], [114.2916877, 30.589504], [114.2919225, 30.5893389], [114.2917125, 30.5891101], [114.291625, 30.5891703], [114.2916236, 30.5891688], [114.2912922, 30.588826], [114.2910495, 30.5890113], [114.2909445, 30.5889272], [114.2908063, 30.5888164], [114.2908427, 30.5887964], [114.2908328, 30.5887814], [114.290493, 30.5882802], [114.2904776, 30.5882437], [114.2910256, 30.5879244], [114.291077, 30.5878945], [114.2911024, 30.5878797], [114.2911098, 30.5878725], [114.291119, 30.5878419], [114.2911161, 30.5878262], [114.2910918, 30.587788], [114.2910025, 30.5876439], [114.2909331, 30.5875308], [114.290916, 30.5875031], [114.2901927, 30.5878439], [114.2901724, 30.5878155], [114.2900387, 30.5876282], [114.2899413, 30.587614], [114.2897648, 30.5874898], [114.28982, 30.5874469], [114.2895222, 30.5871461], [114.2892078, 30.5868978], [114.2892906, 30.5867976], [114.2890093, 30.5865731], [114.2892191, 30.5863584], [114.2892072, 30.5863162], [114.2891478, 30.5861047], [114.2889697, 30.5857296], [114.2889183, 30.5856487], [114.2894787, 30.5853901], [114.2893837, 30.5852359], [114.2894592, 30.5852046], [114.2891992, 30.58479], [114.2891713, 30.5847692], [114.2891306, 30.5847538], [114.2890677, 30.5847503], [114.289034, 30.5847582], [114.2887252, 30.5849062], [114.288681, 30.5849272], [114.2886293, 30.5848437], [114.2883382, 30.5843732], [114.2888137, 30.5841367], [114.2884552, 30.583569], [114.2883908, 30.583464], [114.2883128, 30.5834296], [114.2876424, 30.5837355], [114.2876278, 30.5837421], [114.2874147, 30.5834488], [114.2874265, 30.5832814], [114.2874527, 30.5829091], [114.2875198, 30.5828837], [114.2876132, 30.5828482], [114.2876252, 30.5828677], [114.2879342, 30.5827172], [114.2880288, 30.5826936], [114.2880674, 30.5826752], [114.2881664, 30.5828354], [114.2885993, 30.5826352], [114.288593, 30.582625], [114.2885473, 30.5824826], [114.2886114, 30.5824545], [114.2886164, 30.5824584], [114.288664, 30.5824124], [114.2884926, 30.582291], [114.2893398, 30.5816863], [114.2893265, 30.5816612], [114.2893621, 30.5816323], [114.2893926, 30.5816075], [114.2895361, 30.5818789], [114.289561, 30.5819283], [114.2895757, 30.581956], [114.2900967, 30.5815302], [114.2901838, 30.5814735], [114.2902028, 30.5814977], [114.2902139, 30.5814934], [114.2902256, 30.5815185], [114.2902387, 30.5815145], [114.2902531, 30.5815351], [114.2902758, 30.5815252], [114.2902421, 30.5814626], [114.2902541, 30.5814573], [114.2903101, 30.5814312], [114.2903875, 30.5813992], [114.2904571, 30.5813624], [114.290492, 30.5813473], [114.2905565, 30.5814707], [114.2906743, 30.5814216], [114.2905843, 30.5812654], [114.29061, 30.5812535], [114.2907088, 30.5812003], [114.2907232, 30.5811937], [114.2907807, 30.5812737], [114.2908601, 30.5812324], [114.2907762, 30.5811158], [114.2908486, 30.581081], [114.2909228, 30.5810496], [114.2909521, 30.5810384], [114.2908845, 30.5809061], [114.2908844, 30.5809059], [114.2908846, 30.5809058], [114.2906871, 30.5805562], [114.2913809, 30.5799927], [114.291091, 30.5797525], [114.2911252, 30.5797253], [114.2914387, 30.5794755], [114.2914686, 30.579451], [114.2914998, 30.5795022], [114.2916195, 30.5794093], [114.291865, 30.5796004], [114.2921767, 30.5792047], [114.2922329, 30.5791822], [114.2925041, 30.5790734], [114.2920009, 30.5779365], [114.2919981, 30.5779376], [114.2914608, 30.5781548], [114.2916226, 30.5783957], [114.2900575, 30.5794025], [114.2899402, 30.5792659], [114.2886801, 30.5802145], [114.2883839, 30.5804375], [114.2883257, 30.5807475], [114.2883051, 30.5807601], [114.2881972, 30.5808146], [114.2880168, 30.580922], [114.2880245, 30.5809308], [114.2874858, 30.5812584], [114.2874648, 30.5812712], [114.2874338, 30.5812884], [114.2874194, 30.5812691], [114.2873422, 30.5812938], [114.2870989, 30.5814614], [114.286684, 30.5817495], [114.2867297, 30.5817736], [114.2859241, 30.5823939], [114.2845508, 30.580375], [114.2844311, 30.5802554], [114.2843062, 30.5801399], [114.2841761, 30.5800287], [114.2840412, 30.579922], [114.2839016, 30.5798199], [114.2837575, 30.5797225], [114.2839403, 30.5794938], [114.2838309, 30.5792312], [114.2842555, 30.5791185], [114.2846168, 30.5790283], [114.2847472, 30.5790219], [114.284917, 30.5789928], [114.2851577, 30.5789145], [114.2856895, 30.5786296], [114.2856934, 30.5785274], [114.2856026, 30.578355], [114.2854826, 30.5782022], [114.2852779, 30.5778993], [114.2851201, 30.5776607], [114.2847239, 30.5777979], [114.284847, 30.5780226], [114.2847955, 30.5780477], [114.284808, 30.578067], [114.2847732, 30.5780839], [114.2847793, 30.5780933], [114.2846503, 30.578156], [114.2846284, 30.5781729], [114.2845604, 30.5782013], [114.2845291, 30.5782051], [114.284474, 30.5782261], [114.2844348, 30.5782234], [114.2844247, 30.5782], [114.2843871, 30.5782078], [114.2843021, 30.5782453], [114.2840344, 30.5783476], [114.2838399, 30.578421], [114.2838956, 30.5785282], [114.2836592, 30.5786126], [114.283724, 30.5787761], [114.2836503, 30.5787977], [114.2832727, 30.5789085], [114.2830889, 30.5784681], [114.2834467, 30.5783096], [114.2833795, 30.5781242], [114.2833055, 30.5779407], [114.2832247, 30.5777593], [114.2831372, 30.5775803], [114.2830432, 30.5774038], [114.2829427, 30.5772299], [114.2828358, 30.577059], [114.2822709, 30.577218], [114.2821945, 30.5771839], [114.2821105, 30.5769652], [114.2820499, 30.5770586], [114.2820309, 30.5770507], [114.2819052, 30.5769931], [114.2810929, 30.5766531], [114.281123, 30.5765944], [114.2809886, 30.5765388], [114.2809982, 30.5765216], [114.2808028, 30.5764619], [114.2807091, 30.5764231], [114.2807042, 30.5764317], [114.280678, 30.5764237], [114.2807084, 30.5763792], [114.2801364, 30.5762158], [114.2802425, 30.5758963], [114.2801321, 30.5758676], [114.2801437, 30.5758289], [114.2800228, 30.5758018], [114.2798863, 30.5757759], [114.2797661, 30.57611], [114.2796694, 30.5760824], [114.2795876, 30.5764065], [114.2795008, 30.5767297], [114.2793368, 30.5771802], [114.2791301, 30.5775999], [114.278749, 30.5781453], [114.2790922, 30.5782953], [114.2790639, 30.5783438], [114.2794231, 30.5784892], [114.2794443, 30.5784728], [114.2796019, 30.5785211], [114.2796246, 30.5784688], [114.2803568, 30.5787395], [114.2804194, 30.5787626], [114.2804358, 30.5787339], [114.2805594, 30.5787973], [114.2806034, 30.5787332], [114.2806112, 30.5787214], [114.2806672, 30.5786404], [114.2808119, 30.5787155], [114.2808432, 30.5786716], [114.2808564, 30.5786528], [114.2831752, 30.5798564], [114.2823448, 30.5805751], [114.2822693, 30.5806415], [114.2820072, 30.5808723], [114.2820784, 30.5809344], [114.2827754, 30.5815431], [114.2835535, 30.5809168], [114.2835598, 30.5809225], [114.2838879, 30.5806551], [114.2840959, 30.5805143], [114.2845791, 30.5812256], [114.2844598, 30.5813313], [114.2845343, 30.5813942], [114.2832244, 30.5824538], [114.2843193, 30.583467], [114.2840092, 30.5837178], [114.2840303, 30.5837391], [114.2839686, 30.5837881], [114.2843789, 30.5841834], [114.2843317, 30.5842215], [114.2844179, 30.5843014], [114.2839356, 30.5847045], [114.2830679, 30.5838943], [114.2830192, 30.5838435], [114.282847, 30.5839757], [114.2827959, 30.5840202], [114.2829618, 30.5841657], [114.2827974, 30.584295], [114.2827989, 30.5842962], [114.2827785, 30.5843122], [114.2831174, 30.5846291], [114.2829912, 30.5847338], [114.2830456, 30.5847816], [114.2827517, 30.5850239], [114.2827428, 30.5850313], [114.2831318, 30.5853851], [114.2832987, 30.5855673], [114.2832601, 30.585615], [114.2812716, 30.5870326], [114.2813429, 30.5871129], [114.2814916, 30.5872463], [114.2816875, 30.5874169], [114.2816992, 30.5874271], [114.2817905, 30.5875066], [114.2818733, 30.5875787], [114.2825339, 30.5870645], [114.2825438, 30.5870568], [114.2825683, 30.5870786], [114.2828007, 30.5868957], [114.2829016, 30.5869927], [114.2828899, 30.5870042], [114.2830257, 30.5871362], [114.2833305, 30.5868723], [114.2833733, 30.586912], [114.2833733, 30.586912], [114.2837361, 30.5872482], [114.283973, 30.5870494], [114.2841082, 30.5869349], [114.2840228, 30.5868417], [114.2838191, 30.5866457], [114.2837346, 30.5865689], [114.2841852, 30.5862123], [114.2835326, 30.585556], [114.2835046, 30.5854947], [114.2835381, 30.5854282], [114.2847404, 30.5844679], [114.2847636, 30.5844896], [114.2853185, 30.5850105], [114.285647, 30.5847457], [114.2856509, 30.5847425], [114.2852815, 30.5843964], [114.2857099, 30.5840636], [114.2861296, 30.5844775], [114.286321, 30.5843253], [114.2864095, 30.5844155], [114.2865325, 30.5843174], [114.2865453, 30.5843438], [114.2865507, 30.5844227], [114.2867071, 30.5846222], [114.2866874, 30.584677], [114.2866576, 30.5847011], [114.2867212, 30.5847601], [114.2866339, 30.5848238], [114.2867071, 30.5848928], [114.2866897, 30.5849067], [114.2867811, 30.584991], [114.2868157, 30.5851637], [114.2868408, 30.58516], [114.2868548, 30.5853099], [114.2868455, 30.5853109], [114.2868812, 30.5855611], [114.2867276, 30.5856299], [114.2858006, 30.5863804], [114.2858011, 30.5863808], [114.2880055, 30.5883707], [114.2888856, 30.5886384], [114.2890853, 30.5884544], [114.2901921, 30.5895699], [114.2903628, 30.5897687], [114.2901114, 30.5899368], [114.290097, 30.5899693], [114.290149, 30.5900635], [114.2901902, 30.5900634], [114.2902587, 30.5900665], [114.2902809, 30.5900824], [114.2902773, 30.5901071], [114.2902957, 30.5901247], [114.2905266, 30.5899595], [114.2908123, 30.5902922], [114.2906061, 30.5904345], [114.2905476, 30.5905021], [114.2909213, 30.5910172], [114.2909418, 30.5910063], [114.2910462, 30.5911528], [114.2911129, 30.5911189], [114.2913765, 30.5915947], [114.2915203, 30.5919072], [114.2914621, 30.5919307], [114.2914622, 30.5919309], [114.2914589, 30.591932], [114.2915294, 30.5920627], [114.2915462, 30.5920957], [114.2915483, 30.5920976], [114.2914631, 30.5921664], [114.2914628, 30.5921667], [114.2914113, 30.5924548], [114.2914105, 30.592459], [114.2915126, 30.5924726], [114.2915582, 30.5924927], [114.2915572, 30.5924933], [114.2919711, 30.5926721], [114.2919924, 30.5926813], [114.2923087, 30.5924608], [114.2923656, 30.5924244], [114.2923658, 30.5924243], [114.292449, 30.5923712], [114.2930157, 30.591959], [114.2930191, 30.5919553], [114.293791, 30.5914147], [114.2938051, 30.5914048], [114.2936344, 30.5912181], [114.2936344, 30.591218], [114.2936528, 30.5912055]]]}}, {"type": "Feature", "properties": {"OBJECTID_1": 0, "OBJECTID_2": 31, "Entity": "", "Color": 0, "Linetype": "", "Elevation": 0.0, "LineWt": 0, "RefName": "", "名称": "八七会址核心保护范围", "MJ": 19.6747628354, "类别": "历史文化街区", "Shape_Leng": 4011.94947647, "Shape_Area": 196747.628354}, "geometry": {"type": "Polygon", "coordinates": [[[114.2943986, 30.5920854], [114.2946351, 30.5919448], [114.2951637, 30.592571], [114.2952383, 30.5925237], [114.2957833, 30.5921783], [114.2955294, 30.5918731], [114.2956825, 30.5917863], [114.2957693, 30.5917405], [114.295363, 30.5912474], [114.2962153, 30.5907053], [114.2964701, 30.5910194], [114.2962443, 30.5911703], [114.2966376, 30.5916369], [114.2968939, 30.5914745], [114.2970855, 30.5917601], [114.297952, 30.5914337], [114.297998, 30.5915251], [114.2979578, 30.5915395], [114.2980673, 30.5917618], [114.2979181, 30.59183], [114.2973353, 30.5921323], [114.2973294, 30.5921354], [114.2973293, 30.5921354], [114.2976648, 30.5926352], [114.2976988, 30.5926848], [114.2976989, 30.5926849], [114.2979792, 30.5930951], [114.2981685, 30.5930175], [114.2983589, 30.5929421], [114.298358, 30.5929403], [114.2983579, 30.5929399], [114.2982448, 30.5927423], [114.2984426, 30.5926667], [114.2984257, 30.5926324], [114.2985787, 30.5925678], [114.2984985, 30.592404], [114.2987079, 30.5923222], [114.2988031, 30.5922901], [114.2984506, 30.5916006], [114.2983254, 30.5913541], [114.298087, 30.5908651], [114.2978308, 30.5903248], [114.2976698, 30.5899762], [114.2975403, 30.5897105], [114.2973759, 30.5893709], [114.2970861, 30.5887506], [114.2964845, 30.588952], [114.2966476, 30.5893157], [114.2968368, 30.5892527], [114.2969606, 30.5895143], [114.296738, 30.5895828], [114.2970317, 30.5902178], [114.296884, 30.5902693], [114.2964841, 30.5904073], [114.2963413, 30.5900815], [114.2959826, 30.5902174], [114.2955073, 30.5896533], [114.2960511, 30.5894554], [114.2959079, 30.5891471], [114.2957026, 30.5892167], [114.29551, 30.5887525], [114.2950576, 30.5883859], [114.29489, 30.5882752], [114.2947465, 30.5881733], [114.2944785, 30.5878413], [114.2941664, 30.5880892], [114.2939138, 30.5878447], [114.2940968, 30.5877008], [114.2939699, 30.5875949], [114.2939035, 30.5875301], [114.2934027, 30.5869993], [114.2929812, 30.5873315], [114.2928166, 30.5874612], [114.2926023, 30.5876447], [114.2930367, 30.5879817], [114.293303, 30.5877435], [114.2934645, 30.5879032], [114.2936433, 30.5877678], [114.2938984, 30.5880181], [114.2937268, 30.5881505], [114.2938904, 30.5883075], [114.29385, 30.5883395], [114.2936129, 30.5885369], [114.2923812, 30.5894052], [114.2924071, 30.5894327], [114.2920194, 30.5896993], [114.2920533, 30.5897385], [114.2921009, 30.5897934], [114.2921658, 30.589748], [114.2925935, 30.5902008], [114.2926128, 30.5901882], [114.292629, 30.5902062], [114.292637, 30.5902237], [114.292487, 30.5903288], [114.2926461, 30.5904906], [114.292755, 30.5906014], [114.2930056, 30.5908561], [114.2930193, 30.5908701], [114.2932213, 30.5910754], [114.2934148, 30.590942], [114.2936528, 30.5912055], [114.2936344, 30.591218], [114.2936344, 30.5912181], [114.2938051, 30.5914048], [114.293791, 30.5914147], [114.2930191, 30.5919553], [114.2930157, 30.591959], [114.292449, 30.5923712], [114.2923658, 30.5924243], [114.2923656, 30.5924244], [114.2929933, 30.5930971], [114.2934919, 30.5936314], [114.2935793, 30.593576], [114.2943217, 30.5931055], [114.2947647, 30.5928253], [114.2947644, 30.592825], [114.2947638, 30.5928244], [114.2944332, 30.5924332], [114.294573, 30.5923524], [114.2944592, 30.5922152], [114.2944896, 30.5921965], [114.2943986, 30.5920854]]]}}, {"type": "Feature", "properties": {"OBJECTID_1": 0, "OBJECTID_2": 32, "Entity": "", "Color": 0, "Linetype": "", "Elevation": 0.0, "LineWt": 0, "RefName": "", "名称": "青岛路核心保护范围", "MJ": 11.492117763, "类别": "历史文化街区", "Shape_Leng": 2275.99591362, "Shape_Area": 114921.17763}, "geometry": {"type": "Polygon", "coordinates": [[[114.2903895, 30.5864967], [114.2904871, 30.586451], [114.2905036, 30.5864778], [114.2912399, 30.5857242], [114.2914696, 30.5855275], [114.2914794, 30.5855191], [114.2915705, 30.585441], [114.29179, 30.5858377], [114.2917736, 30.5858445], [114.2923208, 30.5867938], [114.2927103, 30.5864911], [114.2924753, 30.586245], [114.2926613, 30.5861038], [114.2925197, 30.5859713], [114.2924601, 30.5860165], [114.2923482, 30.58591], [114.2932883, 30.5851611], [114.2936444, 30.5857951], [114.2939663, 30.58554], [114.2937942, 30.5852238], [114.2943451, 30.5847859], [114.2945801, 30.5850007], [114.2949241, 30.5847212], [114.2945623, 30.5840594], [114.2946246, 30.5840109], [114.2939007, 30.5827248], [114.2939489, 30.5827045], [114.2934176, 30.5817597], [114.292864, 30.5822054], [114.2931191, 30.5824328], [114.2925385, 30.5829377], [114.292778, 30.5831905], [114.2923545, 30.5835281], [114.2922697, 30.5833775], [114.2918615, 30.5837082], [114.2917091, 30.5835844], [114.2908961, 30.5842575], [114.2907824, 30.5842982], [114.291138, 30.5849229], [114.2909246, 30.5852057], [114.2908411, 30.5851598], [114.2904238, 30.5844267], [114.290396, 30.5844366], [114.2900708, 30.5847208], [114.2899902, 30.5847601], [114.2898631, 30.5850194], [114.2900287, 30.5851001], [114.2897743, 30.5855056], [114.2897724, 30.5855086], [114.290113, 30.5860513], [114.2903895, 30.5864967]]]}}, {"type": "Feature", "properties": {"OBJECTID_1": 0, "OBJECTID_2": 33, "Entity": "3DPolyline", "Color": 7, "Linetype": "Continuous", "Elevation": 0.0, "LineWt": 25, "RefName": "", "名称": "一元路建设控制地带", "MJ": 7.79461385129, "类别": "历史文化街区", "Shape_Leng": 5785.26260903, "Shape_Area": 77946.1385129}, "geometry": {"type": "Polygon", "coordinates": [[[114.2981327, 30.6001314], [114.3001528, 30.5992464], [114.3000003, 30.598997], [114.2989906, 30.5973836], [114.3010009, 30.5964776], [114.2999821, 30.5947581], [114.2998118, 30.5941051], [114.2990961, 30.592648], [114.29909, 30.5926504], [114.2990909, 30.5926523], [114.2983589, 30.5929421], [114.2981685, 30.5930175], [114.2979792, 30.5930951], [114.2976989, 30.5926849], [114.2976988, 30.5926848], [114.2976648, 30.5926352], [114.2973293, 30.5921354], [114.2970791, 30.5917625], [114.2970855, 30.5917601], [114.2968939, 30.5914745], [114.2966376, 30.5916369], [114.2966379, 30.5916372], [114.2966382, 30.5916375], [114.2957838, 30.592179], [114.2957833, 30.5921783], [114.2952383, 30.5925237], [114.2951637, 30.592571], [114.2951643, 30.5925716], [114.2947644, 30.592825], [114.2947647, 30.5928253], [114.2943217, 30.5931055], [114.2935793, 30.593576], [114.2928997, 30.5946722], [114.2956985, 30.5959859], [114.2965637, 30.5974605], [114.2981327, 30.6001314]], [[114.293595, 30.5936564], [114.2937029, 30.5936243], [114.2946375, 30.5940225], [114.294927, 30.5937866], [114.2943414, 30.59313], [114.2953462, 30.5924868], [114.2956963, 30.5928993], [114.2960834, 30.5926559], [114.295786, 30.5922205], [114.2963102, 30.5918793], [114.2969515, 30.5926817], [114.2974448, 30.5923746], [114.2983382, 30.5936808], [114.2991942, 30.593309], [114.2996314, 30.5942044], [114.299632, 30.5943214], [114.2996856, 30.5946842], [114.2999431, 30.5950955], [114.2985323, 30.5957621], [114.2985386, 30.595786], [114.2988461, 30.5963099], [114.2983591, 30.5965192], [114.2984631, 30.5966949], [114.2986347, 30.5969831], [114.2994522, 30.5983106], [114.2994522, 30.5983107], [114.3000091, 30.5992005], [114.2992877, 30.5995186], [114.2992876, 30.5995187], [114.2981382, 30.6000188], [114.2970422, 30.5981674], [114.2969376, 30.597992], [114.2968473, 30.5978303], [114.2965807, 30.5973873], [114.2964674, 30.5972035], [114.2956087, 30.5957313], [114.2949381, 30.5955906], [114.2946527, 30.5954447], [114.2942632, 30.5952735], [114.2936518, 30.5949836], [114.2930515, 30.5947076], [114.2930052, 30.5946637], [114.2930025, 30.5946155], [114.293595, 30.5936564]]]}}, {"type": "Feature", "properties": {"OBJECTID_1": 0, "OBJECTID_2": 36, "Entity": "LWPolyline", "Color": 1, "Linetype": "DASHED2", "Elevation": 0.0, "LineWt": 25, "RefName": "", "名称": "昙华林建设控制地带", "MJ": 61.0053583316, "类别": "历史文化街区", "Shape_Leng": 5658.23797732, "Shape_Area": 610053.583316}, "geometry": {"type": "Polygon", "coordinates": [[[114.3007377, 30.5568771], [114.301381, 30.5567295], [114.3014778, 30.5567073], [114.3014768, 30.5567041], [114.3016985, 30.5566778], [114.3018024, 30.5567722], [114.3018087, 30.5567704], [114.3018535, 30.556773], [114.3019025, 30.5567819], [114.3020004, 30.5567736], [114.3020067, 30.5567735], [114.3020838, 30.5567643], [114.3020963, 30.5567634], [114.3021537, 30.5567759], [114.3022475, 30.5567964], [114.3022559, 30.5567928], [114.3022652, 30.5567883], [114.3022996, 30.5567702], [114.3023089, 30.5567611], [114.302365, 30.5567105], [114.3024296, 30.556676], [114.3024515, 30.5566823], [114.3025026, 30.5566948], [114.3025464, 30.5566929], [114.3025682, 30.556692], [114.3025985, 30.556691], [114.3026067, 30.5566459], [114.3026587, 30.5566268], [114.302786, 30.5566536], [114.3028557, 30.5566146], [114.3029285, 30.5565621], [114.3029305, 30.5565603], [114.3029409, 30.5565531], [114.3029806, 30.556553], [114.302991, 30.556553], [114.3030442, 30.5565889], [114.3030453, 30.556588], [114.3032328, 30.5565488], [114.3033651, 30.5565214], [114.3033888, 30.5564627], [114.3034302, 30.5563607], [114.3034395, 30.5563381], [114.3034499, 30.5563336], [114.3034697, 30.5563254], [114.3034989, 30.5563136], [114.3035248, 30.5562865], [114.3035716, 30.5562404], [114.3036789, 30.5562113], [114.3037549, 30.5561904], [114.3037768, 30.5561849], [114.3039038, 30.5561575], [114.3039226, 30.5561539], [114.3040469, 30.5561297], [114.30407, 30.5561252], [114.3041489, 30.556117], [114.3043182, 30.5560992], [114.3043188, 30.5560992], [114.3043752, 30.5560906], [114.3044303, 30.5560769], [114.3044833, 30.5560582], [114.3045338, 30.5560348], [114.3045812, 30.5560069], [114.3045949, 30.5559979], [114.3046256, 30.5559802], [114.3046586, 30.5559661], [114.3046934, 30.5559556], [114.3048401, 30.5559203], [114.3049059, 30.555907], [114.3049727, 30.5558984], [114.3049967, 30.5558962], [114.3050536, 30.5558934], [114.3051105, 30.5558952], [114.305167, 30.5559016], [114.3052225, 30.5559126], [114.3052766, 30.5559281], [114.305401, 30.5559694], [114.3054552, 30.555985], [114.3055107, 30.5559964], [114.3055282, 30.5559993], [114.3055773, 30.5560054], [114.3056268, 30.5560074], [114.3056763, 30.5560053], [114.3067414, 30.5559161], [114.3090776, 30.5556207], [114.3091439, 30.5556103], [114.3092094, 30.555596], [114.3092735, 30.5555779], [114.3093514, 30.5555501], [114.3097645, 30.5553842], [114.3097681, 30.5553827], [114.3097932, 30.5553723], [114.3098725, 30.555334], [114.3099474, 30.5552896], [114.3100174, 30.5552395], [114.3100817, 30.555184], [114.3101399, 30.5551237], [114.3101915, 30.555059], [114.3102359, 30.5549904], [114.3102359, 30.5549904], [114.3102726, 30.5549194], [114.3103018, 30.5548457], [114.3103231, 30.5547701], [114.3103364, 30.5546931], [114.3103415, 30.5546154], [114.3103385, 30.5545376], [114.3103274, 30.5544604], [114.3103082, 30.5543844], [114.3100948, 30.5536916], [114.3100369, 30.5534881], [114.3099863, 30.5532831], [114.309943, 30.5530769], [114.3098379, 30.5527356], [114.3098513, 30.5525552], [114.3098609, 30.5524261], [114.3098689, 30.5523182], [114.3099429, 30.5523073], [114.3100899, 30.5522858], [114.3102881, 30.5520255], [114.3105334, 30.5517031], [114.3104469, 30.5510013], [114.3105054, 30.5509908], [114.3104944, 30.5509517], [114.3103222, 30.5503423], [114.3103108, 30.5502829], [114.3102789, 30.5501935], [114.3102375, 30.5500774], [114.3102211, 30.5500316], [114.3101834, 30.5500404], [114.3099812, 30.5500879], [114.3096905, 30.5501561], [114.3096538, 30.5500462], [114.3092165, 30.5501556], [114.3085212, 30.5503064], [114.3084604, 30.5503196], [114.3083506, 30.5499521], [114.3083264, 30.5498708], [114.3081959, 30.5494417], [114.3080851, 30.5494589], [114.3080848, 30.549459], [114.3079958, 30.5494728], [114.3047082, 30.5499833], [114.3048842, 30.5508835], [114.3055701, 30.5507741], [114.3056762, 30.5513904], [114.3049137, 30.5514476], [114.3048123, 30.5514524], [114.3047107, 30.5514514], [114.3046093, 30.5514448], [114.3045087, 30.5514324], [114.3042085, 30.5513869], [114.3041376, 30.5513792], [114.3040662, 30.5513775], [114.303995, 30.551382], [114.3039245, 30.5513924], [114.3038556, 30.5514087], [114.3037889, 30.5514308], [114.3030233, 30.5517222], [114.3029161, 30.55176], [114.3028067, 30.5517925], [114.3026953, 30.5518198], [114.3025823, 30.5518416], [114.3024682, 30.551858], [114.3013144, 30.5519953], [114.3010414, 30.5520198], [114.3008305, 30.5505451], [114.2995106, 30.5507276], [114.2994519, 30.5507358], [114.2995548, 30.5513213], [114.2996972, 30.5521405], [114.298948, 30.5522077], [114.2982108, 30.5523915], [114.2984037, 30.5528236], [114.2985277, 30.5530266], [114.2986515, 30.553313], [114.2985775, 30.5533447], [114.2985003, 30.5533702], [114.2993303, 30.5553271], [114.2993242, 30.5553869], [114.2993105, 30.5554458], [114.2992892, 30.5555029], [114.2992606, 30.5555576], [114.2992252, 30.5556092], [114.2991833, 30.5556571], [114.2991355, 30.5557006], [114.2990824, 30.5557392], [114.2990246, 30.5557724], [114.2989628, 30.5557998], [114.2988979, 30.555821], [114.2988307, 30.5558358], [114.298762, 30.5558441], [114.2986707, 30.555847], [114.2985714, 30.5558527], [114.2984726, 30.5558638], [114.2983748, 30.55588], [114.2982784, 30.5559014], [114.2981836, 30.5559279], [114.297545, 30.5561251], [114.2976771, 30.5564555], [114.2976903, 30.5564813], [114.2977081, 30.5565048], [114.2977301, 30.5565255], [114.2977558, 30.5565428], [114.2977844, 30.5565563], [114.2978151, 30.5565655], [114.2978472, 30.5565702], [114.2997771, 30.5567151], [114.2997866, 30.5567907], [114.3000223, 30.5567553], [114.3000333, 30.5567537], [114.3001107, 30.5567402], [114.3000924, 30.5567388], [114.3007093, 30.5567851], [114.3007143, 30.5568014], [114.3007377, 30.5568771]], [[114.3038308, 30.5555257], [114.3036935, 30.5552892], [114.3036215, 30.5553172], [114.3035857, 30.5552815], [114.3033601, 30.5554195], [114.3031966, 30.5555067], [114.3031961, 30.555507], [114.3029205, 30.5550864], [114.3027094, 30.5551506], [114.3026109, 30.5548121], [114.3024934, 30.5546768], [114.3025016, 30.5545981], [114.3024943, 30.5545051], [114.3024818, 30.5543346], [114.3024302, 30.5543319], [114.3024283, 30.5542997], [114.3024372, 30.5541788], [114.3021457, 30.5541633], [114.3021839, 30.5536723], [114.3021721, 30.5534371], [114.3024764, 30.5533603], [114.3030049, 30.5533122], [114.3030269, 30.5534619], [114.3030819, 30.5534636], [114.3030788, 30.5536091], [114.3034843, 30.5535847], [114.3034939, 30.5536881], [114.303558, 30.5536791], [114.3035729, 30.5537999], [114.3035758, 30.5538699], [114.3037545, 30.553847], [114.3037206, 30.5536061], [114.3038364, 30.5535532], [114.3040862, 30.553474], [114.3042733, 30.5538886], [114.304601, 30.5537692], [114.3046168, 30.553829], [114.3047074, 30.5540582], [114.3047658, 30.5542112], [114.3047683, 30.5542106], [114.3047931, 30.5542817], [114.3053726, 30.5541689], [114.3057319, 30.5541051], [114.3058713, 30.5546242], [114.3057106, 30.5546633], [114.3057726, 30.5549125], [114.3057888, 30.5550463], [114.3057908, 30.555056], [114.3058087, 30.5551415], [114.3047734, 30.5553291], [114.304145, 30.5554393], [114.3039662, 30.5554778], [114.3038308, 30.5555257]]]}}, {"type": "Feature", "properties": {"OBJECTID_1": 0, "OBJECTID_2": 0, "Entity": "3DPolyline", "Color": 202, "Linetype": "DASHED2", "Elevation": 0.0, "LineWt": 25, "RefName": "", "名称": "江汉路及中山大道建设控制地带", "MJ": 63.4053426197, "类别": "历史文化街区", "Shape_Leng": 14223.114664, "Shape_Area": 634053.426197}, "geometry": {"type": "MultiPolygon", "coordinates": [[[[114.2843871, 30.5782078], [114.2844247, 30.5782], [114.2844348, 30.5782234], [114.284474, 30.5782261], [114.2845291, 30.5782051], [114.2845604, 30.5782013], [114.2846284, 30.5781729], [114.2846503, 30.578156], [114.2847793, 30.5780933], [114.2847732, 30.5780839], [114.284808, 30.578067], [114.2847955, 30.5780477], [114.284847, 30.5780226], [114.2847239, 30.5777979], [114.2851201, 30.5776607], [114.2851508, 30.5776418], [114.284465, 30.5765795], [114.2844089, 30.5764958], [114.2830513, 30.5768983], [114.2829153, 30.5769386], [114.2828668, 30.5768576], [114.2827983, 30.576708], [114.2827148, 30.5764351], [114.2826224, 30.5762089], [114.2825685, 30.5759736], [114.2824081, 30.5755667], [114.2824106, 30.5754114], [114.2823417, 30.574909], [114.2823336, 30.574839], [114.2825104, 30.5748259], [114.2829296, 30.5748051], [114.2829362, 30.5748394], [114.2829869, 30.5749769], [114.2830662, 30.5752309], [114.2832516, 30.5751832], [114.283629, 30.5750726], [114.2837018, 30.5750612], [114.283671, 30.5749199], [114.2835349, 30.574484], [114.2834665, 30.5742455], [114.28316, 30.5743175], [114.2830671, 30.574328], [114.2830634, 30.5743948], [114.2829475, 30.5743856], [114.2828522, 30.5743945], [114.2827212, 30.5744109], [114.2827345, 30.5744718], [114.2827424, 30.5745079], [114.2824333, 30.5745948], [114.282409, 30.574549], [114.2823473, 30.574528], [114.2822519, 30.5745548], [114.2822249, 30.5744999], [114.2816685, 30.5731639], [114.2805312, 30.5732688], [114.279985, 30.5732669], [114.2801334, 30.5744233], [114.279914, 30.5744252], [114.2797304, 30.5745849], [114.2796793, 30.5748527], [114.2799076, 30.5750854], [114.2799081, 30.5750859], [114.2799088, 30.5750864], [114.2799096, 30.5750867], [114.2801098, 30.5751574], [114.2798398, 30.5757296], [114.2797125, 30.5759994], [114.2796694, 30.5760824], [114.2797661, 30.57611], [114.2798863, 30.5757759], [114.2800228, 30.5758018], [114.2801437, 30.5758289], [114.2801321, 30.5758676], [114.2802425, 30.5758963], [114.2801364, 30.5762158], [114.2807084, 30.5763792], [114.280678, 30.5764237], [114.2807042, 30.5764317], [114.2807091, 30.5764231], [114.2808028, 30.5764619], [114.2809982, 30.5765216], [114.2809886, 30.5765388], [114.281123, 30.5765944], [114.2810929, 30.5766531], [114.2819052, 30.5769931], [114.2820309, 30.5770507], [114.2820499, 30.5770586], [114.2821105, 30.5769652], [114.2821945, 30.5771839], [114.2822709, 30.577218], [114.2828358, 30.577059], [114.2829427, 30.5772299], [114.2830432, 30.5774038], [114.2831372, 30.5775803], [114.2832247, 30.5777593], [114.2833055, 30.5779407], [114.2833795, 30.5781242], [114.2834467, 30.5783096], [114.2830889, 30.5784681], [114.2832727, 30.5789085], [114.2836503, 30.5787977], [114.283724, 30.5787761], [114.2836592, 30.5786126], [114.2838956, 30.5785282], [114.2838399, 30.578421], [114.2840344, 30.5783476], [114.2843021, 30.5782453], [114.2843871, 30.5782078]]], [[[114.2886801, 30.5802145], [114.2899402, 30.5792659], [114.2900575, 30.5794025], [114.2916226, 30.5783957], [114.2914608, 30.5781548], [114.2919981, 30.5779376], [114.2919095, 30.5777518], [114.2910795, 30.5780677], [114.2909873, 30.578058], [114.2908119, 30.5781295], [114.290703, 30.57823], [114.2906393, 30.5783411], [114.2906659, 30.5783937], [114.2905854, 30.5784345], [114.290506, 30.5784769], [114.2904278, 30.578521], [114.2903509, 30.5785666], [114.2903557, 30.5785704], [114.2902911, 30.5786106], [114.2902275, 30.5786518], [114.2901468, 30.5787063], [114.2900676, 30.5787625], [114.2899901, 30.5788202], [114.2899141, 30.5788796], [114.2898397, 30.5789405], [114.2897671, 30.5790028], [114.2896961, 30.5790667], [114.2896269, 30.579132], [114.2895596, 30.5791987], [114.2894941, 30.5792667], [114.2894304, 30.5793361], [114.2893687, 30.5794067], [114.2886801, 30.5802145]]], [[[114.2831752, 30.5798564], [114.2808564, 30.5786528], [114.2808432, 30.5786716], [114.2808119, 30.5787155], [114.2806672, 30.5786404], [114.2806112, 30.5787214], [114.2806034, 30.5787332], [114.2805594, 30.5787973], [114.2804358, 30.5787339], [114.2804194, 30.5787626], [114.2803568, 30.5787395], [114.2799546, 30.5793285], [114.2800961, 30.5794067], [114.2806149, 30.5796767], [114.2814207, 30.580096], [114.2818109, 30.5802991], [114.2819593, 30.5803768], [114.2819792, 30.5803914], [114.2821503, 30.5805389], [114.2822693, 30.5806415], [114.2823448, 30.5805751], [114.2831752, 30.5798564]]], [[[114.2873422, 30.5812938], [114.2874194, 30.5812691], [114.2874338, 30.5812884], [114.2874648, 30.5812712], [114.2874858, 30.5812584], [114.285762, 30.5785884], [114.2856895, 30.5786296], [114.2851577, 30.5789145], [114.284917, 30.5789928], [114.2847472, 30.5790219], [114.2846168, 30.5790283], [114.2842555, 30.5791185], [114.2838309, 30.5792312], [114.2839403, 30.5794938], [114.2837575, 30.5797225], [114.2839016, 30.5798199], [114.2840412, 30.579922], [114.2841761, 30.5800287], [114.2843062, 30.5801399], [114.2844311, 30.5802554], [114.2845508, 30.580375], [114.2859241, 30.5823939], [114.2867297, 30.5817736], [114.286684, 30.5817495], [114.2870989, 30.5814614], [114.2873422, 30.5812938]]], [[[114.282847, 30.5839757], [114.2830192, 30.5838435], [114.2830679, 30.5838943], [114.2839356, 30.5847045], [114.2844179, 30.5843014], [114.2843317, 30.5842215], [114.2843789, 30.5841834], [114.2839686, 30.5837881], [114.2840303, 30.5837391], [114.2840092, 30.5837178], [114.2843193, 30.583467], [114.2832244, 30.5824538], [114.2845343, 30.5813942], [114.2844598, 30.5813313], [114.2845791, 30.5812256], [114.2840959, 30.5805143], [114.2838879, 30.5806551], [114.2835598, 30.5809225], [114.2835535, 30.5809168], [114.2827754, 30.5815431], [114.2820784, 30.5809344], [114.2809075, 30.581915], [114.2823333, 30.5832356], [114.2815501, 30.5838839], [114.2827517, 30.5850239], [114.2830456, 30.5847816], [114.2829912, 30.5847338], [114.2831174, 30.5846291], [114.2827785, 30.5843122], [114.2827989, 30.5842962], [114.2827974, 30.584295], [114.2829618, 30.5841657], [114.2827959, 30.5840202], [114.282847, 30.5839757]]], [[[114.2868548, 30.5853099], [114.2868408, 30.58516], [114.2868157, 30.5851637], [114.2867811, 30.584991], [114.2866897, 30.5849067], [114.2867071, 30.5848928], [114.2866339, 30.5848238], [114.2867212, 30.5847601], [114.2866576, 30.5847011], [114.2866874, 30.584677], [114.2867071, 30.5846222], [114.2865507, 30.5844227], [114.2865453, 30.5843438], [114.2865325, 30.5843174], [114.2864095, 30.5844155], [114.286321, 30.5843253], [114.2861296, 30.5844775], [114.2857099, 30.5840636], [114.2852815, 30.5843964], [114.2856509, 30.5847425], [114.285647, 30.5847457], [114.2853185, 30.5850105], [114.2847636, 30.5844896], [114.2847404, 30.5844679], [114.2835381, 30.5854282], [114.2835046, 30.5854947], [114.2835326, 30.585556], [114.2841852, 30.5862123], [114.2849105, 30.5869417], [114.2850002, 30.5870258], [114.2858011, 30.5863808], [114.2858006, 30.5863804], [114.2867276, 30.5856299], [114.2868812, 30.5855611], [114.2868455, 30.5853109], [114.2868548, 30.5853099]]], [[[114.2828357, 30.5873418], [114.2833733, 30.586912], [114.2833305, 30.5868723], [114.2830257, 30.5871362], [114.2828899, 30.5870042], [114.2829016, 30.5869927], [114.2828007, 30.5868957], [114.2825683, 30.5870786], [114.2825438, 30.5870568], [114.2825339, 30.5870645], [114.2828357, 30.5873418]]], [[[114.2920194, 30.5896993], [114.2924071, 30.5894327], [114.2923812, 30.5894052], [114.2915332, 30.5885043], [114.2915794, 30.5884743], [114.2913938, 30.5881831], [114.2912008, 30.5878801], [114.2912368, 30.5878591], [114.2911683, 30.587748], [114.2911681, 30.5877477], [114.2907321, 30.5870403], [114.2908069, 30.5869699], [114.2905036, 30.5864778], [114.2904871, 30.586451], [114.2903515, 30.5865163], [114.2903506, 30.5865148], [114.2891883, 30.5846302], [114.2891874, 30.5846288], [114.2906247, 30.5839293], [114.2934982, 30.5816761], [114.2921659, 30.5792788], [114.2922329, 30.5791822], [114.2921767, 30.5792047], [114.291865, 30.5796004], [114.2916195, 30.5794093], [114.2914998, 30.5795022], [114.2914686, 30.579451], [114.2914387, 30.5794755], [114.2911252, 30.5797253], [114.291091, 30.5797525], [114.2913809, 30.5799927], [114.2906871, 30.5805562], [114.2908846, 30.5809058], [114.2908844, 30.5809059], [114.2908845, 30.5809061], [114.2909521, 30.5810384], [114.2909228, 30.5810496], [114.2908486, 30.581081], [114.2907762, 30.5811158], [114.2908601, 30.5812324], [114.2907807, 30.5812737], [114.2907232, 30.5811937], [114.2907088, 30.5812003], [114.29061, 30.5812535], [114.2905843, 30.5812654], [114.2906743, 30.5814216], [114.2905565, 30.5814707], [114.290492, 30.5813473], [114.2904571, 30.5813624], [114.2903875, 30.5813992], [114.2903101, 30.5814312], [114.2902541, 30.5814573], [114.2902421, 30.5814626], [114.2902758, 30.5815252], [114.2902531, 30.5815351], [114.2902387, 30.5815145], [114.2902256, 30.5815185], [114.2902139, 30.5814934], [114.2902028, 30.5814977], [114.2901838, 30.5814735], [114.2900967, 30.5815302], [114.2895757, 30.581956], [114.289561, 30.5819283], [114.2895361, 30.5818789], [114.2893926, 30.5816075], [114.2893621, 30.5816323], [114.2893265, 30.5816612], [114.2893398, 30.5816863], [114.2884926, 30.582291], [114.288664, 30.5824124], [114.2886164, 30.5824584], [114.2886114, 30.5824545], [114.2885473, 30.5824826], [114.288593, 30.582625], [114.2885993, 30.5826352], [114.2881664, 30.5828354], [114.2880674, 30.5826752], [114.2880288, 30.5826936], [114.2879342, 30.5827172], [114.2876252, 30.5828677], [114.2876132, 30.5828482], [114.2875198, 30.5828837], [114.2874527, 30.5829091], [114.2874265, 30.5832814], [114.2874147, 30.5834488], [114.2876278, 30.5837421], [114.2876424, 30.5837355], [114.2883128, 30.5834296], [114.2883908, 30.583464], [114.2884552, 30.583569], [114.2888137, 30.5841367], [114.2883382, 30.5843732], [114.2886293, 30.5848437], [114.288681, 30.5849272], [114.2887252, 30.5849062], [114.289034, 30.5847582], [114.2890677, 30.5847503], [114.2891306, 30.5847538], [114.2891713, 30.5847692], [114.2891992, 30.58479], [114.2894592, 30.5852046], [114.2893837, 30.5852359], [114.2894787, 30.5853901], [114.2889183, 30.5856487], [114.2889697, 30.5857296], [114.2891478, 30.5861047], [114.2892072, 30.5863162], [114.2892191, 30.5863584], [114.2890093, 30.5865731], [114.2892906, 30.5867976], [114.2892078, 30.5868978], [114.2895222, 30.5871461], [114.28982, 30.5874469], [114.2897648, 30.5874898], [114.2899413, 30.587614], [114.2900387, 30.5876282], [114.2901724, 30.5878155], [114.2901927, 30.5878439], [114.290916, 30.5875031], [114.2909331, 30.5875308], [114.2910025, 30.5876439], [114.2910918, 30.587788], [114.2911161, 30.5878262], [114.291119, 30.5878419], [114.2911098, 30.5878725], [114.2911024, 30.5878797], [114.291077, 30.5878945], [114.2910256, 30.5879244], [114.2904776, 30.5882437], [114.290493, 30.5882802], [114.2908328, 30.5887814], [114.2908427, 30.5887964], [114.2908063, 30.5888164], [114.2909445, 30.5889272], [114.2910495, 30.5890113], [114.2912922, 30.588826], [114.2916236, 30.5891688], [114.291625, 30.5891703], [114.2917125, 30.5891101], [114.2919225, 30.5893389], [114.2916877, 30.589504], [114.2916069, 30.5894177], [114.2915394, 30.5893456], [114.291546, 30.5893319], [114.2913302, 30.5894795], [114.2911774, 30.5895841], [114.2915485, 30.5899741], [114.2915799, 30.5900071], [114.2915769, 30.5900091], [114.2919283, 30.5897709], [114.2920194, 30.5896993]]], [[[114.2913765, 30.5915947], [114.2911129, 30.5911189], [114.2910462, 30.5911528], [114.2909418, 30.5910063], [114.2909213, 30.5910172], [114.2905476, 30.5905021], [114.2906061, 30.5904345], [114.2908123, 30.5902922], [114.2905266, 30.5899595], [114.2902957, 30.5901247], [114.2902773, 30.5901071], [114.2902809, 30.5900824], [114.2902587, 30.5900665], [114.2901902, 30.5900634], [114.290149, 30.5900635], [114.290097, 30.5899693], [114.2901114, 30.5899368], [114.2903628, 30.5897687], [114.2901921, 30.5895699], [114.2890853, 30.5884544], [114.2888856, 30.5886384], [114.2880055, 30.5883707], [114.2884437, 30.5885074], [114.2884766, 30.5885228], [114.2885076, 30.5885408], [114.2885366, 30.5885613], [114.2885632, 30.588584], [114.2885872, 30.5886088], [114.2886084, 30.5886354], [114.2886266, 30.5886636], [114.2886417, 30.5886931], [114.2886536, 30.5887238], [114.288662, 30.5887553], [114.288667, 30.5887874], [114.2886685, 30.5888197], [114.2886665, 30.5888519], [114.2885737, 30.5893936], [114.2893466, 30.589446], [114.2893545, 30.5909733], [114.2893388, 30.5910256], [114.2893039, 30.5919146], [114.2894344, 30.5919242], [114.2904653, 30.5920077], [114.290408, 30.5922718], [114.2914113, 30.5924548], [114.2914628, 30.5921667], [114.2914631, 30.5921664], [114.2915483, 30.5920976], [114.2915462, 30.5920957], [114.2915294, 30.5920627], [114.2914589, 30.591932], [114.2914622, 30.5919309], [114.2914621, 30.5919307], [114.2915203, 30.5919072], [114.2913765, 30.5915947]]]]}}]}