{"type": "FeatureCollection", "name": "历史文化名村", "features": [{"type": "Feature", "properties": {"OBJECTID_1": 1, "BSM": "420116000000005017", "YSDM": "2090022227", "XZQDM": "420116", "XZQMC": "黄陂区", "MC": "黄陂区木兰乡大余湾村", "LB": "01", "JB": "10", "MJ": 69883.37, "GKYQ": "历史文化名村核心保护范围", "BZ": "国家级,历史文化名村", "Shape_Leng": 1385.93941308, "Shape_Le_1": 1385.93941308, "Shape_Area": 69885.4969167}, "geometry": {"type": "Polygon", "coordinates": [[[114.3699079, 31.0312845], [114.3700052, 31.0311521], [114.370028, 31.0311212], [114.3700361, 31.0311048], [114.3700235, 31.0310985], [114.3699938, 31.0310779], [114.3699477, 31.0310379], [114.3699136, 31.0310054], [114.3699409, 31.030977], [114.3699906, 31.0309389], [114.3696377, 31.0306441], [114.3700822, 31.0302836], [114.3700968, 31.0302718], [114.3699994, 31.0301919], [114.3698851, 31.0300983], [114.3696821, 31.029932], [114.3690461, 31.0295133], [114.3686956, 31.0292838], [114.3685216, 31.0291719], [114.3684853, 31.0291485], [114.3684445, 31.0291223], [114.36785, 31.0288137], [114.367371, 31.028574], [114.3669728, 31.0283645], [114.3668878, 31.0283004], [114.366368, 31.0287193], [114.3663174, 31.0287357], [114.3662121, 31.0287697], [114.3661508, 31.0287895], [114.3660268, 31.0289271], [114.3661008, 31.0289699], [114.3665487, 31.0292289], [114.3664987, 31.0292902], [114.3663592, 31.0294611], [114.3663072, 31.0296117], [114.3662878, 31.0296981], [114.3662386, 31.0298746], [114.3663328, 31.0300983], [114.3664032, 31.0302413], [114.3664064, 31.0302908], [114.3664111, 31.0303641], [114.3664595, 31.0304294], [114.3665051, 31.0305192], [114.3665563, 31.0306151], [114.3666472, 31.0307015], [114.3667898, 31.0308062], [114.366924, 31.0308044], [114.3670659, 31.030799], [114.3671561, 31.0308157], [114.3673157, 31.0308451], [114.3674754, 31.0308739], [114.3675757, 31.030832], [114.367654, 31.030816], [114.3676736, 31.03079], [114.367739, 31.0307129], [114.3677547, 31.0305539], [114.3677957, 31.0304984], [114.3679366, 31.0303632], [114.3680099, 31.0302929], [114.3681277, 31.0302366], [114.3681877, 31.0302163], [114.3682404, 31.030228], [114.3682758, 31.0302645], [114.3682971, 31.0303726], [114.3683211, 31.0304797], [114.3683582, 31.0305979], [114.3683613, 31.0306329], [114.3683193, 31.030675], [114.3683156, 31.0306787], [114.3682837, 31.0307107], [114.3682373, 31.0307542], [114.3682206, 31.0307791], [114.3682064, 31.0308189], [114.3682054, 31.0308505], [114.3682012, 31.0308753], [114.3681839, 31.0308914], [114.3681784, 31.0308923], [114.3682225, 31.0309702], [114.3682768, 31.0310272], [114.3683672, 31.0310483], [114.3684229, 31.0310214], [114.3685137, 31.0310031], [114.3685566, 31.0309944], [114.3686128, 31.030969], [114.3686371, 31.0309821], [114.3686586, 31.0309772], [114.3686812, 31.0309713], [114.3687001, 31.0309726], [114.3687306, 31.0309885], [114.3687569, 31.0310005], [114.3687798, 31.031004], [114.3687994, 31.0309928], [114.3688196, 31.0309785], [114.3688381, 31.0309761], [114.3688558, 31.030986], [114.3688607, 31.0310033], [114.3688636, 31.03103], [114.3688724, 31.0310767], [114.3688942, 31.0311414], [114.3689114, 31.0311889], [114.368928, 31.0312427], [114.3689297, 31.0312621], [114.3689341, 31.0313124], [114.3690091, 31.0313186], [114.3690611, 31.0312983], [114.3691271, 31.0312725], [114.3692258, 31.0312664], [114.3693821, 31.0312687], [114.369525, 31.0312948], [114.3695628, 31.0313204], [114.369638, 31.0313815], [114.3696975, 31.0314126], [114.3697478, 31.0314323], [114.369796, 31.0314142], [114.3698087, 31.0314085], [114.3698623, 31.0313841], [114.3699079, 31.0312845]]]}}, {"type": "Feature", "properties": {"OBJECTID_1": 2, "BSM": "420116000000005129", "YSDM": "2090022227", "XZQDM": "420116", "XZQMC": "黄陂区", "MC": "黄陂区木兰乡大余湾村", "LB": "01", "JB": "10", "MJ": 339590.26, "GKYQ": "历史文化名村建设控制地带", "BZ": "国家级,历史文化名村", "Shape_Leng": 4191.86408306, "Shape_Le_1": 4191.86408306, "Shape_Area": 339600.584807}, "geometry": {"type": "Polygon", "coordinates": [[[114.3686437, 31.0327298], [114.3689434, 31.0325566], [114.3694705, 31.0326086], [114.3697649, 31.0324722], [114.3699728, 31.0321915], [114.3699804, 31.0321841], [114.3701425, 31.0320268], [114.3705655, 31.03215], [114.3706043, 31.0321613], [114.370925, 31.032293], [114.3710149, 31.0321595], [114.3710929, 31.0321293], [114.3710962, 31.0318653], [114.3711908, 31.0316446], [114.3713137, 31.0314932], [114.3713211, 31.0313979], [114.371334, 31.0312324], [114.3713197, 31.0311081], [114.3711328, 31.0309221], [114.3710001, 31.0307996], [114.3709793, 31.0307125], [114.3708699, 31.0306441], [114.3708109, 31.0306006], [114.3707007, 31.0305182], [114.3705944, 31.030242], [114.3706419, 31.0299024], [114.3706242, 31.029687], [114.3707452, 31.0295156], [114.3707694, 31.0294806], [114.3708084, 31.0294242], [114.3710512, 31.0293356], [114.3710781, 31.0292082], [114.3710164, 31.028927], [114.371422, 31.0287644], [114.3715501, 31.0287381], [114.3715555, 31.0286503], [114.3714126, 31.0284225], [114.3708903, 31.0275567], [114.3706793, 31.0273263], [114.3705535, 31.0271389], [114.3699194, 31.026688], [114.3695978, 31.026522], [114.3693558, 31.0261401], [114.3692993, 31.0260831], [114.3692451, 31.0260185], [114.3691861, 31.0260275], [114.3691566, 31.0260409], [114.3690387, 31.0262416], [114.3688755, 31.0263445], [114.3686219, 31.026405], [114.3684609, 31.0263775], [114.3682618, 31.0260039], [114.3680079, 31.0259035], [114.3677817, 31.0259018], [114.3673763, 31.0261237], [114.3669797, 31.0262455], [114.3665241, 31.0261962], [114.3661154, 31.0261638], [114.3657084, 31.026104], [114.3653254, 31.0260788], [114.3650081, 31.0260318], [114.3648369, 31.0260065], [114.3645583, 31.025969], [114.3643576, 31.0261887], [114.3644493, 31.0264066], [114.3645958, 31.0267547], [114.3646096, 31.0269386], [114.3641946, 31.0274255], [114.3641653, 31.0274529], [114.3641249, 31.0274907], [114.3641244, 31.0275672], [114.364133, 31.027592], [114.3641747, 31.027713], [114.3642598, 31.0278251], [114.3644164, 31.0279578], [114.3646574, 31.0281295], [114.3648196, 31.0282362], [114.3649211, 31.0283024], [114.3646317, 31.0283755], [114.3647441, 31.0288225], [114.3646575, 31.0289766], [114.364542, 31.0292931], [114.3643704, 31.0294988], [114.3642342, 31.0295192], [114.3646374, 31.0298823], [114.3647341, 31.0299828], [114.3647106, 31.0301248], [114.3647184, 31.0302126], [114.3645784, 31.0304199], [114.3644247, 31.0306659], [114.3642235, 31.0308247], [114.3644962, 31.0310308], [114.3650886, 31.0313728], [114.3660434, 31.0319278], [114.36641, 31.0322389], [114.3669654, 31.032547], [114.3672914, 31.0326527], [114.3676214, 31.0328459], [114.3686437, 31.0327298]], [[114.3695628, 31.0313204], [114.369525, 31.0312948], [114.3693821, 31.0312687], [114.3692258, 31.0312664], [114.3691271, 31.0312725], [114.3690611, 31.0312983], [114.3690091, 31.0313186], [114.3689341, 31.0313124], [114.3689297, 31.0312621], [114.368928, 31.0312427], [114.3689114, 31.0311889], [114.3688942, 31.0311414], [114.3688724, 31.0310767], [114.3688636, 31.03103], [114.3688607, 31.0310033], [114.3688558, 31.030986], [114.3688381, 31.0309761], [114.3688196, 31.0309785], [114.3687994, 31.0309928], [114.3687798, 31.031004], [114.3687569, 31.0310005], [114.3687306, 31.0309885], [114.3687001, 31.0309726], [114.3686812, 31.0309713], [114.3686586, 31.0309772], [114.3686371, 31.0309821], [114.3686128, 31.030969], [114.3685566, 31.0309944], [114.3685137, 31.0310031], [114.3684229, 31.0310214], [114.3683672, 31.0310483], [114.3682768, 31.0310272], [114.3682225, 31.0309702], [114.3681784, 31.0308923], [114.3681839, 31.0308914], [114.3682012, 31.0308753], [114.3682054, 31.0308505], [114.3682064, 31.0308189], [114.3682206, 31.0307791], [114.3682373, 31.0307542], [114.3682837, 31.0307107], [114.3683156, 31.0306787], [114.3683193, 31.030675], [114.3683613, 31.0306329], [114.3683582, 31.0305979], [114.3683211, 31.0304797], [114.3682971, 31.0303726], [114.3682758, 31.0302645], [114.3682404, 31.030228], [114.3681877, 31.0302163], [114.3681277, 31.0302366], [114.3680099, 31.0302929], [114.3679366, 31.0303632], [114.3677957, 31.0304984], [114.3677547, 31.0305539], [114.367739, 31.0307129], [114.3676736, 31.03079], [114.367654, 31.030816], [114.3675757, 31.030832], [114.3674754, 31.0308739], [114.3673157, 31.0308451], [114.3671561, 31.0308157], [114.3670659, 31.030799], [114.366924, 31.0308044], [114.3667898, 31.0308062], [114.3666472, 31.0307015], [114.3665563, 31.0306151], [114.3665051, 31.0305192], [114.3664595, 31.0304294], [114.3664111, 31.0303641], [114.3664064, 31.0302908], [114.3664032, 31.0302413], [114.3663328, 31.0300983], [114.3662386, 31.0298746], [114.3662878, 31.0296981], [114.3663072, 31.0296117], [114.3663592, 31.0294611], [114.3664987, 31.0292902], [114.3665487, 31.0292289], [114.3661008, 31.0289699], [114.3660268, 31.0289271], [114.3661508, 31.0287895], [114.3662121, 31.0287697], [114.3663174, 31.0287357], [114.366368, 31.0287193], [114.3668878, 31.0283004], [114.3669728, 31.0283645], [114.367371, 31.028574], [114.36785, 31.0288137], [114.3684445, 31.0291223], [114.3684853, 31.0291485], [114.3685216, 31.0291719], [114.3686956, 31.0292838], [114.3690461, 31.0295133], [114.3696821, 31.029932], [114.3698851, 31.0300983], [114.3699994, 31.0301919], [114.3700968, 31.0302718], [114.3700822, 31.0302836], [114.3696377, 31.0306441], [114.3699906, 31.0309389], [114.3699409, 31.030977], [114.3699136, 31.0310054], [114.3699477, 31.0310379], [114.3699938, 31.0310779], [114.3700235, 31.0310985], [114.3700361, 31.0311048], [114.370028, 31.0311212], [114.3700052, 31.0311521], [114.3699079, 31.0312845], [114.3698623, 31.0313841], [114.3698087, 31.0314085], [114.369796, 31.0314142], [114.3697478, 31.0314323], [114.3696975, 31.0314126], [114.369638, 31.0313815], [114.3695628, 31.0313204]]]}}]}