{"type": "FeatureCollection", "name": "历史城区", "features": [{"type": "Feature", "properties": {"OBJECTID_1": 0, "OBJECTID_2": 1, "Entity": "3DPolyline", "Layer": "武昌古城历史城区", "Color": 254, "Linetype": "Continuous", "Elevation": 0.0, "LineWt": 25, "RefName": "", "Shape_Leng": 10193.6922468, "MJ": 7.29818569662, "Shape_Le_1": 10193.6922468, "Shape_Le_2": 10193.7949497, "Shape_Area": 7298185.69662}, "geometry": {"type": "Polygon", "coordinates": [[[114.2957227, 30.5576052], [114.298199, 30.557551], [114.3003491, 30.5577887], [114.3066271, 30.557127], [114.3082428, 30.5568158], [114.3093538, 30.5564735], [114.3101284, 30.556132], [114.3110702, 30.5554827], [114.3115263, 30.5549317], [114.3118888, 30.5543323], [114.3119902, 30.5538873], [114.3124854, 30.5509503], [114.3129799, 30.5477868], [114.3131814, 30.5465328], [114.3134748, 30.5448013], [114.313455, 30.5444293], [114.3134535, 30.5439926], [114.3127621, 30.5410908], [114.311522, 30.5360714], [114.310963, 30.5336383], [114.3106339, 30.532984], [114.3094889, 30.5313369], [114.3093481, 30.531135], [114.3090653, 30.5303593], [114.3088948, 30.5296237], [114.3086386, 30.5283546], [114.3084318, 30.5279507], [114.3080755, 30.5275552], [114.3078412, 30.5273212], [114.3075788, 30.527055], [114.3073074, 30.5269181], [114.3069894, 30.5268056], [114.3066248, 30.5267256], [114.306167, 30.5267105], [114.3055411, 30.5267201], [114.304807, 30.5267417], [114.3044906, 30.526782], [114.3040293, 30.5268949], [114.3013569, 30.5278527], [114.2986334, 30.5288246], [114.295945, 30.5297839], [114.2951407, 30.5300492], [114.2950109, 30.5300949], [114.2948836, 30.5301457], [114.294759, 30.5302013], [114.2946375, 30.5302616], [114.2931282, 30.5310509], [114.2907413, 30.5321749], [114.2889197, 30.5323559], [114.2885107, 30.5323497], [114.2884486, 30.5324571], [114.2883175, 30.5326719], [114.2880831, 30.5329642], [114.287821, 30.5331789], [114.2873522, 30.5335247], [114.287097, 30.5337633], [114.2867798, 30.5341391], [114.2858692, 30.5357945], [114.2853763, 30.5368348], [114.2852904, 30.5369311], [114.2852107, 30.5370313], [114.2851373, 30.537135], [114.2850705, 30.5372421], [114.2850105, 30.5373521], [114.2849574, 30.5374647], [114.2849114, 30.5375797], [114.2848727, 30.5376966], [114.2848018, 30.5377959], [114.2847767, 30.5378826], [114.2847432, 30.5379839], [114.2846763, 30.5380996], [114.2845403, 30.538198], [114.2849574, 30.5406344], [114.2849913, 30.5407758], [114.2850436, 30.5409129], [114.2851136, 30.541044], [114.2852005, 30.5411673], [114.2855174, 30.5415641], [114.2856388, 30.5417295], [114.285745, 30.5419024], [114.2858354, 30.542082], [114.2861235, 30.5427212], [114.2862715, 30.5430773], [114.2863971, 30.5434398], [114.2867662, 30.5446192], [114.2868533, 30.5449244], [114.2869245, 30.5452327], [114.2871865, 30.546514], [114.2872488, 30.5468725], [114.2872897, 30.5472332], [114.2874549, 30.5492137], [114.2878507, 30.5497384], [114.2880742, 30.5503222], [114.2892333, 30.552572], [114.2893152, 30.5527152], [114.2894102, 30.5528523], [114.2895176, 30.5529823], [114.2902838, 30.5538348], [114.2904561, 30.5540386], [114.2906145, 30.5542507], [114.2917581, 30.5558853], [114.2924103, 30.5567007], [114.292685, 30.5570249], [114.2929796, 30.5573357], [114.2932932, 30.5576321], [114.2940402, 30.5583011], [114.2942834, 30.5581794], [114.2946306, 30.5580282], [114.2951624, 30.5577439], [114.2957227, 30.5576052]]]}}, {"type": "Feature", "properties": {"OBJECTID_1": 0, "OBJECTID_2": 2, "Entity": "3DPolyline", "Layer": "汉口近代历史城区", "Color": 254, "Linetype": "Continuous", "Elevation": 0.0, "LineWt": 25, "RefName": "", "Shape_Leng": 12690.7211222, "MJ": 4.1841213476, "Shape_Le_1": 12690.7211222, "Shape_Le_2": 12690.8427079, "Shape_Area": 4184121.3476}, "geometry": {"type": "Polygon", "coordinates": [[[114.3091966, 30.6096355], [114.3094402, 30.6095409], [114.3084418, 30.6080092], [114.3080633, 30.6074286], [114.3070941, 30.6059418], [114.3068353, 30.6055448], [114.3064566, 30.6049638], [114.3054115, 30.6033605], [114.3052104, 30.6030266], [114.3048235, 30.6023843], [114.304084, 30.6011568], [114.3034434, 30.6001026], [114.3032412, 30.5997699], [114.3027143, 30.5988975], [114.3023487, 30.5982922], [114.3018462, 30.5974591], [114.3012889, 30.596535], [114.3009814, 30.596025], [114.3001323, 30.5942964], [114.2998564, 30.5937346], [114.2992884, 30.5925782], [114.2985855, 30.5911397], [114.298584, 30.5911367], [114.2983126, 30.5905837], [114.2981534, 30.5902592], [114.297361, 30.5885822], [114.2968717, 30.5874639], [114.2968417, 30.5873955], [114.296567, 30.5867676], [114.2964674, 30.5865484], [114.2963741, 30.5863555], [114.2962709, 30.5861665], [114.2957973, 30.5853465], [114.2956792, 30.5851426], [114.2953177, 30.5845181], [114.2948528, 30.5837214], [114.2953268, 30.583522], [114.2945524, 30.5822724], [114.2943622, 30.5819655], [114.2929401, 30.5796705], [114.2926283, 30.5791672], [114.2926938, 30.5789382], [114.2927429, 30.578917], [114.2925616, 30.5785164], [114.2916821, 30.5765735], [114.2913836, 30.5759139], [114.2912148, 30.575541], [114.2900601, 30.5734592], [114.2900445, 30.5734657], [114.2844089, 30.5764958], [114.2829153, 30.5769386], [114.2829029, 30.5769364], [114.282769, 30.576644], [114.2824081, 30.5755667], [114.28241, 30.5755037], [114.282316, 30.574685], [114.2805717, 30.5747538], [114.2805687, 30.5746963], [114.2805686, 30.5746956], [114.2805684, 30.5746949], [114.280568, 30.5746943], [114.2805676, 30.5746937], [114.280567, 30.5746932], [114.2802278, 30.5744225], [114.279914, 30.5744252], [114.2797304, 30.5745849], [114.2796793, 30.5748527], [114.2799076, 30.5750854], [114.2799081, 30.5750859], [114.2799088, 30.5750864], [114.2799096, 30.5750867], [114.2801098, 30.5751574], [114.2796729, 30.5760834], [114.2796694, 30.5760824], [114.2795876, 30.5764065], [114.2795008, 30.5767297], [114.2793368, 30.5771802], [114.2791301, 30.5775999], [114.278749, 30.5781453], [114.2790922, 30.5782953], [114.2790639, 30.5783438], [114.2794231, 30.5784892], [114.2794443, 30.5784728], [114.2796019, 30.5785211], [114.2796246, 30.5784688], [114.2803568, 30.5787395], [114.2789184, 30.580846], [114.2789177, 30.5808702], [114.2789211, 30.5808943], [114.2789288, 30.5809177], [114.2789403, 30.5809398], [114.2789556, 30.5809602], [114.2789742, 30.5809783], [114.2789957, 30.5809939], [114.2804544, 30.5815112], [114.2805472, 30.5815534], [114.2809707, 30.5818139], [114.2810356, 30.581884], [114.2809963, 30.5819174], [114.2809961, 30.5819175], [114.2809961, 30.5819175], [114.280808, 30.5820758], [114.2800133, 30.5827447], [114.27913, 30.5834882], [114.2787755, 30.5839194], [114.2784828, 30.5842757], [114.2780955, 30.5847069], [114.2775734, 30.5852887], [114.2783939, 30.5856327], [114.2785802, 30.5857142], [114.2787633, 30.585801], [114.2789429, 30.585893], [114.2791189, 30.5859902], [114.279291, 30.5860924], [114.2794591, 30.5861995], [114.2796229, 30.5863114], [114.2797824, 30.5864279], [114.2799372, 30.5865491], [114.2800874, 30.5866746], [114.2818086, 30.5881624], [114.2818037, 30.5881662], [114.2820692, 30.5883942], [114.2869764, 30.5926088], [114.2887193, 30.5941807], [114.2917548, 30.5970992], [114.2921556, 30.5974809], [114.2922754, 30.5975272], [114.2932475, 30.5983814], [114.2932479, 30.5983811], [114.2932521, 30.5983768], [114.2936371, 30.5979865], [114.2937503, 30.5978756], [114.2938693, 30.5977687], [114.2939941, 30.5976667], [114.2940424, 30.59763], [114.2940427, 30.5976297], [114.2941224, 30.5975697], [114.2945468, 30.5972606], [114.2952124, 30.5967759], [114.2957858, 30.5961651], [114.2957965, 30.5961532], [114.2957967, 30.5961534], [114.2957967, 30.5961535], [114.2966302, 30.597574], [114.2970149, 30.5982296], [114.2978752, 30.5996958], [114.2980798, 30.6000444], [114.2981288, 30.6001279], [114.2981291, 30.6001285], [114.2981303, 30.6001304], [114.2981303, 30.6001314], [114.298134, 30.6001379], [114.2987765, 30.6012366], [114.2989907, 30.6016029], [114.2989908, 30.6016031], [114.2990033, 30.601627], [114.2978772, 30.6021274], [114.2967981, 30.60258], [114.2967567, 30.6025973], [114.2974469, 30.6037118], [114.2978988, 30.6043414], [114.2983062, 30.604909], [114.2986546, 30.6053943], [114.3010467, 30.6087268], [114.301107, 30.6088108], [114.301107, 30.6088109], [114.3018225, 30.6098139], [114.3021439, 30.6102644], [114.3022077, 30.6103539], [114.3022571, 30.6103428], [114.302605, 30.6102645], [114.3038986, 30.6099734], [114.3040123, 30.6099478], [114.3049184, 30.6115183], [114.3051131, 30.6114115], [114.3056106, 30.6111385], [114.3056371, 30.6111239], [114.3057707, 30.6109433], [114.3058404, 30.6108492], [114.3060544, 30.6106332], [114.3063396, 30.6104436], [114.3064182, 30.6103914], [114.3064918, 30.610378], [114.3070905, 30.6102691], [114.3077693, 30.6101457], [114.3080408, 30.6100964], [114.308916, 30.6097474], [114.3089163, 30.6097473], [114.3089167, 30.6097471], [114.3090589, 30.6096905], [114.3091966, 30.6096355]]]}}, {"type": "Feature", "properties": {"OBJECTID_1": 0, "OBJECTID_2": 3, "Entity": "3DPolyline", "Layer": "汉阳古城历史城区", "Color": 254, "Linetype": "Continuous", "Elevation": 0.0, "LineWt": 25, "RefName": "", "Shape_Leng": 13555.119744, "MJ": 5.090583229, "Shape_Le_1": 13555.119744, "Shape_Le_2": 13555.2169176, "Shape_Area": 5090583.229}, "geometry": {"type": "Polygon", "coordinates": [[[114.2708626, 30.5621848], [114.2723501, 30.5621402], [114.273346, 30.5621577], [114.2744553, 30.5621592], [114.2751994, 30.5622116], [114.2756908, 30.5622704], [114.276183, 30.5624057], [114.2767756, 30.5625718], [114.2771843, 30.5626883], [114.2775466, 30.5628094], [114.2775386, 30.5628115], [114.2776699, 30.5628766], [114.2778322, 30.5629677], [114.2779876, 30.5630673], [114.2781565, 30.5631913], [114.2781866, 30.5632154], [114.2790034, 30.5638769], [114.2794159, 30.5642109], [114.2795975, 30.564358], [114.2796989, 30.5644402], [114.280125, 30.5647852], [114.2804445, 30.565044], [114.2805624, 30.5651356], [114.2808354, 30.5653222], [114.2811264, 30.5654873], [114.2814424, 30.5656336], [114.2817724, 30.5657546], [114.2821136, 30.5658492], [114.2823795, 30.5659032], [114.282649, 30.5659412], [114.2828107, 30.56595], [114.2829898, 30.5659384], [114.2831652, 30.5659048], [114.2833333, 30.5658497], [114.2834918, 30.5657736], [114.283636, 30.5656785], [114.2837628, 30.5655663], [114.2838695, 30.5654395], [114.2839539, 30.5653006], [114.2840142, 30.5651526], [114.2840523, 30.5649743], [114.2840554, 30.5647931], [114.2840235, 30.5646139], [114.2839576, 30.5644419], [114.2838877, 30.5643217], [114.2838619, 30.5642851], [114.2835705, 30.5638902], [114.2826183, 30.5625993], [114.282589, 30.5625605], [114.2825777, 30.5623534], [114.2823141, 30.5621493], [114.281879, 30.5617805], [114.2815815, 30.5612182], [114.2807712, 30.5600143], [114.2801947, 30.5590139], [114.2801756, 30.5589516], [114.2801489, 30.558906], [114.2801553, 30.5588807], [114.280166, 30.5588392], [114.2802639, 30.5587653], [114.2802648, 30.5587612], [114.2802647, 30.5587544], [114.2802641, 30.558744], [114.2802635, 30.5587421], [114.2802628, 30.5587372], [114.2802621, 30.5587325], [114.2802595, 30.5587268], [114.2802523, 30.5587165], [114.2802365, 30.5587028], [114.2802098, 30.5586769], [114.2801695, 30.558609], [114.2801212, 30.5585577], [114.2800631, 30.558498], [114.2800253, 30.558462], [114.2800029, 30.5584494], [114.2799897, 30.5584414], [114.2799742, 30.5584286], [114.279957, 30.5584171], [114.2799368, 30.5584092], [114.2799345, 30.5584087], [114.279903, 30.5584025], [114.2798522, 30.558398], [114.2798086, 30.5583941], [114.2797695, 30.5583887], [114.2797532, 30.5583865], [114.2797451, 30.5583849], [114.2797279, 30.5583643], [114.2794987, 30.5580898], [114.2789915, 30.5574379], [114.278835, 30.5574489], [114.2786952, 30.5574588], [114.2786502, 30.5573939], [114.2781359, 30.5566522], [114.2777151, 30.5561575], [114.2774053, 30.5557934], [114.2771389, 30.5554802], [114.2770458, 30.555357], [114.2770357, 30.5553626], [114.2768511, 30.5551144], [114.2766285, 30.5548152], [114.2750999, 30.5516305], [114.2749852, 30.5514006], [114.2748632, 30.5511736], [114.2747615, 30.5509973], [114.2747608, 30.5509976], [114.274734, 30.5509496], [114.2747244, 30.5509506], [114.2740391, 30.5497677], [114.2740276, 30.5497479], [114.2739349, 30.5495879], [114.2738751, 30.5494847], [114.2738323, 30.5494283], [114.273826, 30.54942], [114.2737955, 30.5493798], [114.2737896, 30.5493721], [114.2735062, 30.5489986], [114.2730165, 30.5486925], [114.2730026, 30.5486838], [114.2729552, 30.5486538], [114.2728278, 30.548581], [114.2726965, 30.5485138], [114.2725867, 30.5484636], [114.2725616, 30.5484522], [114.2725265, 30.548438], [114.2724995, 30.5484244], [114.2722206, 30.5483196], [114.2722204, 30.5483195], [114.271973, 30.5482259], [114.2711454, 30.5479126], [114.2709974, 30.5478605], [114.2708465, 30.5478149], [114.2706931, 30.5477761], [114.2705377, 30.5477441], [114.2703805, 30.547719], [114.2702221, 30.5477009], [114.2700628, 30.5476899], [114.269321, 30.5476549], [114.2683041, 30.5473563], [114.265864, 30.5467221], [114.2639236, 30.546159], [114.2628914, 30.5458595], [114.2628853, 30.5458577], [114.2626772, 30.5457813], [114.2613071, 30.545278], [114.261103, 30.545203], [114.2609872, 30.5451605], [114.2608851, 30.5470418], [114.2556533, 30.5469646], [114.2555434, 30.5469604], [114.2554339, 30.5469513], [114.2553252, 30.5469372], [114.2552174, 30.5469181], [114.255111, 30.5468941], [114.2550062, 30.5468653], [114.2530571, 30.5462806], [114.2529321, 30.5462404], [114.2528091, 30.5461957], [114.2526884, 30.5461465], [114.2525703, 30.5460928], [114.2524549, 30.5460349], [114.2520768, 30.5458356], [114.2510546, 30.5482864], [114.2511906, 30.5483272], [114.2553118, 30.5496014], [114.2552761, 30.5497536], [114.2552471, 30.5499069], [114.255225, 30.550061], [114.2552097, 30.5502158], [114.2552014, 30.5503709], [114.2551999, 30.5505262], [114.2552054, 30.5506815], [114.2552177, 30.5508365], [114.2552824, 30.5514708], [114.2554093, 30.5522417], [114.256463, 30.5520955], [114.256627, 30.5520757], [114.2567917, 30.5520614], [114.256957, 30.5520529], [114.2571225, 30.55205], [114.2572881, 30.5520529], [114.2576021, 30.5520637], [114.2606717, 30.5521621], [114.2605957, 30.5541129], [114.2605419, 30.5553465], [114.2605372, 30.5554529], [114.2603249, 30.5560173], [114.2585405, 30.5559627], [114.2572147, 30.5551635], [114.2570056, 30.5550478], [114.2567865, 30.5549468], [114.2565588, 30.5548612], [114.256324, 30.5547915], [114.2560835, 30.5547381], [114.255839, 30.5547014], [114.2555918, 30.5546817], [114.255469, 30.5546782], [114.2550553, 30.5546734], [114.254848, 30.5546782], [114.2546418, 30.5546972], [114.2544379, 30.5547303], [114.2542378, 30.5547774], [114.2540426, 30.5548381], [114.2538536, 30.5549121], [114.2538507, 30.5549134], [114.2525263, 30.5554894], [114.2516555, 30.55585], [114.2516486, 30.5558528], [114.2506789, 30.5562347], [114.2473006, 30.5575652], [114.2432898, 30.5590773], [114.2428402, 30.5592656], [114.2424094, 30.5594844], [114.2420001, 30.5597322], [114.2419236, 30.5597834], [114.2410027, 30.5604096], [114.2395694, 30.5613841], [114.2406386, 30.5632358], [114.2409995, 30.5638162], [114.2410856, 30.5639547], [114.2416878, 30.5648569], [114.2420199, 30.5653545], [114.2428979, 30.5671219], [114.2470875, 30.5655601], [114.2473888, 30.5654601], [114.2476985, 30.5653817], [114.2480146, 30.5653254], [114.2483349, 30.5652915], [114.2486574, 30.5652804], [114.2499722, 30.5652811], [114.250221, 30.5652732], [114.2504684, 30.5652493], [114.2539336, 30.5648002], [114.254366, 30.5647402], [114.2586048, 30.5641124], [114.2591257, 30.5640472], [114.2596498, 30.5640053], [114.2607482, 30.563942], [114.2616116, 30.5638394], [114.2636704, 30.5632457], [114.2670623, 30.5626078], [114.2693515, 30.5623609], [114.2708626, 30.5621848]]]}}]}